CCSDS_OMM_VERS = 2.0
CREATION_DATE  = 
ORIGINATOR     = 

OBJECT_NAME    = ATLAS CENTAUR R/B
OBJECT_ID      = 1972-065B
CENTER_NAME    = EARTH
REF_FRAME      = TEME
TIME_SYSTEM    = UTC
MEAN_ELEMENT_THEORY = SGP/SGP4

EPOCH          = 2025-12-01T12:12:49.968288
MEAN_MOTION    = 14.77358251
ECCENTRICITY   = .0034594
INCLINATION    = 34.9997
RA_OF_ASC_NODE = 160.9841
ARG_OF_PERICENTER = 264.6403
MEAN_ANOMALY   = 95.0350

EPHEMERIS_TYPE = 0
CLASSIFICATION_TYPE = U
NORAD_CAT_ID   = 6155
ELEMENT_SET_NO = 999
REV_AT_EPOCH   = 82673
BSTAR          = .17941E-3
MEAN_MOTION_DOT = .1286E-4
MEAN_MOTION_DDOT = 0

CCSDS_OMM_VERS = 2.0
CREATION_DATE  = 
ORIGINATOR     = 

OBJECT_NAME    = SL-8 R/B
OBJECT_ID      = 1975-112B
CENTER_NAME    = EARTH
REF_FRAME      = TEME
TIME_SYSTEM    = UTC
MEAN_ELEMENT_THEORY = SGP/SGP4

EPOCH          = 2025-12-01T01:47:19.785984
MEAN_MOTION    = 14.38133182
ECCENTRICITY   = .0016368
INCLINATION    = 74.0595
RA_OF_ASC_NODE = 200.3141
ARG_OF_PERICENTER = 313.0233
MEAN_ANOMALY   = 46.9549

EPHEMERIS_TYPE = 0
CLASSIFICATION_TYPE = U
NORAD_CAT_ID   = 8459
ELEMENT_SET_NO = 999
REV_AT_EPOCH   = 61769
BSTAR          = .10506896E-3
MEAN_MOTION_DOT = .293E-5
MEAN_MOTION_DDOT = 0

CCSDS_OMM_VERS = 2.0
CREATION_DATE  = 
ORIGINATOR     = 

OBJECT_NAME    = SL-3 R/B
OBJECT_ID      = 1977-057B
CENTER_NAME    = EARTH
REF_FRAME      = TEME
TIME_SYSTEM    = UTC
MEAN_ELEMENT_THEORY = SGP/SGP4

EPOCH          = 2025-12-01T11:16:57.542016
MEAN_MOTION    = 15.42542128
ECCENTRICITY   = .0006418
INCLINATION    = 97.5677
RA_OF_ASC_NODE = 138.3626
ARG_OF_PERICENTER = 280.1988
MEAN_ANOMALY   = 79.8535

EPHEMERIS_TYPE = 0
CLASSIFICATION_TYPE = U
NORAD_CAT_ID   = 10114
ELEMENT_SET_NO = 999
REV_AT_EPOCH   = 65317
BSTAR          = .3439E-3
MEAN_MOTION_DOT = .14855E-3
MEAN_MOTION_DDOT = 0

CCSDS_OMM_VERS = 2.0
CREATION_DATE  = 
ORIGINATOR     = 

OBJECT_NAME    = SEASAT 1
OBJECT_ID      = 1978-064A
CENTER_NAME    = EARTH
REF_FRAME      = TEME
TIME_SYSTEM    = UTC
MEAN_ELEMENT_THEORY = SGP/SGP4

EPOCH          = 2025-12-01T11:24:47.331648
MEAN_MOTION    = 14.46040366
ECCENTRICITY   = .0001917
INCLINATION    = 108.0097
RA_OF_ASC_NODE = 279.4034
ARG_OF_PERICENTER = 250.5474
MEAN_ANOMALY   = 109.5464

EPHEMERIS_TYPE = 0
CLASSIFICATION_TYPE = U
NORAD_CAT_ID   = 10967
ELEMENT_SET_NO = 999
REV_AT_EPOCH   = 49231
BSTAR          = .18869E-3
MEAN_MOTION_DOT = .536E-5
MEAN_MOTION_DDOT = 0

CCSDS_OMM_VERS = 2.0
CREATION_DATE  = 
ORIGINATOR     = 

OBJECT_NAME    = SL-14 R/B
OBJECT_ID      = 1979-011B
CENTER_NAME    = EARTH
REF_FRAME      = TEME
TIME_SYSTEM    = UTC
MEAN_ELEMENT_THEORY = SGP/SGP4

EPOCH          = 2025-12-01T07:37:50.848032
MEAN_MOTION    = 14.91748194
ECCENTRICITY   = .00169
INCLINATION    = 82.5242
RA_OF_ASC_NODE = 189.8761
ARG_OF_PERICENTER = 30.8258
MEAN_ANOMALY   = 329.3950

EPHEMERIS_TYPE = 0
CLASSIFICATION_TYPE = U
NORAD_CAT_ID   = 11267
ELEMENT_SET_NO = 999
REV_AT_EPOCH   = 51411
BSTAR          = .70184E-4
MEAN_MOTION_DOT = .734E-5
MEAN_MOTION_DDOT = 0

CCSDS_OMM_VERS = 2.0
CREATION_DATE  = 
ORIGINATOR     = 

OBJECT_NAME    = SL-8 R/B
OBJECT_ID      = 1979-089B
CENTER_NAME    = EARTH
REF_FRAME      = TEME
TIME_SYSTEM    = UTC
MEAN_ELEMENT_THEORY = SGP/SGP4

EPOCH          = 2025-12-01T06:03:51.424992
MEAN_MOTION    = 14.42270453
ECCENTRICITY   = .0014506
INCLINATION    = 74.0689
RA_OF_ASC_NODE = 273.2387
ARG_OF_PERICENTER = 112.5311
MEAN_ANOMALY   = 247.7382

EPHEMERIS_TYPE = 0
CLASSIFICATION_TYPE = U
NORAD_CAT_ID   = 11574
ELEMENT_SET_NO = 999
REV_AT_EPOCH   = 42191
BSTAR          = .11694E-3
MEAN_MOTION_DOT = .36E-5
MEAN_MOTION_DDOT = 0

CCSDS_OMM_VERS = 2.0
CREATION_DATE  = 
ORIGINATOR     = 

OBJECT_NAME    = SL-14 R/B
OBJECT_ID      = 1980-005B
CENTER_NAME    = EARTH
REF_FRAME      = TEME
TIME_SYSTEM    = UTC
MEAN_ELEMENT_THEORY = SGP/SGP4

EPOCH          = 2025-12-01T11:13:36.153120
MEAN_MOTION    = 14.90769996
ECCENTRICITY   = .0016994
INCLINATION    = 82.5159
RA_OF_ASC_NODE = 40.3888
ARG_OF_PERICENTER = 127.9377
MEAN_ANOMALY   = 232.3381

EPHEMERIS_TYPE = 0
CLASSIFICATION_TYPE = U
NORAD_CAT_ID   = 11672
ELEMENT_SET_NO = 999
REV_AT_EPOCH   = 46185
BSTAR          = .76812E-4
MEAN_MOTION_DOT = .782E-5
MEAN_MOTION_DDOT = 0

CCSDS_OMM_VERS = 2.0
CREATION_DATE  = 
ORIGINATOR     = 

OBJECT_NAME    = SL-8 R/B
OBJECT_ID      = 1981-003B
CENTER_NAME    = EARTH
REF_FRAME      = TEME
TIME_SYSTEM    = UTC
MEAN_ELEMENT_THEORY = SGP/SGP4

EPOCH          = 2025-12-01T04:22:19.372224
MEAN_MOTION    = 15.06495296
ECCENTRICITY   = .0281203
INCLINATION    = 82.9303
RA_OF_ASC_NODE = 20.8387
ARG_OF_PERICENTER = 160.1434
MEAN_ANOMALY   = 201.1013

EPHEMERIS_TYPE = 0
CLASSIFICATION_TYPE = U
NORAD_CAT_ID   = 12139
ELEMENT_SET_NO = 999
REV_AT_EPOCH   = 29982
BSTAR          = .67838E-3
MEAN_MOTION_DOT = .25338E-3
MEAN_MOTION_DDOT = 0

CCSDS_OMM_VERS = 2.0
CREATION_DATE  = 
ORIGINATOR     = 

OBJECT_NAME    = SL-3 R/B
OBJECT_ID      = 1981-046B
CENTER_NAME    = EARTH
REF_FRAME      = TEME
TIME_SYSTEM    = UTC
MEAN_ELEMENT_THEORY = SGP/SGP4

EPOCH          = 2025-12-01T10:47:12.859296
MEAN_MOTION    = 15.39252783
ECCENTRICITY   = .0019692
INCLINATION    = 81.2343
RA_OF_ASC_NODE = 47.4395
ARG_OF_PERICENTER = 3.9620
MEAN_ANOMALY   = 356.1773

EPHEMERIS_TYPE = 0
CLASSIFICATION_TYPE = U
NORAD_CAT_ID   = 12465
ELEMENT_SET_NO = 999
REV_AT_EPOCH   = 42330
BSTAR          = .31786E-3
MEAN_MOTION_DOT = .12491E-3
MEAN_MOTION_DDOT = 0

CCSDS_OMM_VERS = 2.0
CREATION_DATE  = 
ORIGINATOR     = 

OBJECT_NAME    = SL-3 R/B
OBJECT_ID      = 1981-103B
CENTER_NAME    = EARTH
REF_FRAME      = TEME
TIME_SYSTEM    = UTC
MEAN_ELEMENT_THEORY = SGP/SGP4

EPOCH          = 2025-12-01T11:16:36.456096
MEAN_MOTION    = 15.20018249
ECCENTRICITY   = .0011151
INCLINATION    = 81.1584
RA_OF_ASC_NODE = 328.5521
ARG_OF_PERICENTER = 256.9049
MEAN_ANOMALY   = 103.0938

EPHEMERIS_TYPE = 0
CLASSIFICATION_TYPE = U
NORAD_CAT_ID   = 12904
ELEMENT_SET_NO = 999
REV_AT_EPOCH   = 95830
BSTAR          = .39791E-3
MEAN_MOTION_DOT = .8613E-4
MEAN_MOTION_DDOT = 0

CCSDS_OMM_VERS = 2.0
CREATION_DATE  = 
ORIGINATOR     = 

OBJECT_NAME    = SL-3 R/B
OBJECT_ID      = 1982-013B
CENTER_NAME    = EARTH
REF_FRAME      = TEME
TIME_SYSTEM    = UTC
MEAN_ELEMENT_THEORY = SGP/SGP4

EPOCH          = 2025-12-01T11:01:56.785728
MEAN_MOTION    = 15.20921322
ECCENTRICITY   = .0023541
INCLINATION    = 81.1741
RA_OF_ASC_NODE = 275.8107
ARG_OF_PERICENTER = 146.9015
MEAN_ANOMALY   = 213.3695

EPHEMERIS_TYPE = 0
CLASSIFICATION_TYPE = U
NORAD_CAT_ID   = 13068
ELEMENT_SET_NO = 999
REV_AT_EPOCH   = 38941
BSTAR          = .27011E-3
MEAN_MOTION_DOT = .6045E-4
MEAN_MOTION_DDOT = 0

CCSDS_OMM_VERS = 2.0
CREATION_DATE  = 
ORIGINATOR     = 

OBJECT_NAME    = SL-3 R/B
OBJECT_ID      = 1982-039B
CENTER_NAME    = EARTH
REF_FRAME      = TEME
TIME_SYSTEM    = UTC
MEAN_ELEMENT_THEORY = SGP/SGP4

EPOCH          = 2025-12-01T10:28:33.763296
MEAN_MOTION    = 15.09417077
ECCENTRICITY   = .0030513
INCLINATION    = 81.1736
RA_OF_ASC_NODE = 329.0993
ARG_OF_PERICENTER = 290.4740
MEAN_ANOMALY   = 69.3210

EPHEMERIS_TYPE = 0
CLASSIFICATION_TYPE = U
NORAD_CAT_ID   = 13154
ELEMENT_SET_NO = 999
REV_AT_EPOCH   = 36681
BSTAR          = .22806E-3
MEAN_MOTION_DOT = .3707E-4
MEAN_MOTION_DDOT = 0

