ATLAS CENTAUR R/B       
1 06155U 72065B   25335.50891167  .00001286  00000+0  17941-3 0  9993
2 06155  34.9997 160.9841 0034594 264.6403  95.0350 14.77358251826730
SL-8 R/B                
1 08459U 75112B   25335.07453456  .00000293  00000+0  10507-3 0  9993
2 08459  74.0595 200.3141 0016368 313.0233  46.9549 14.38133182617698
SL-3 R/B                
1 10114U 77057B   25335.47011044  .00014855  00000+0  34390-3 0  9996
2 10114  97.5677 138.3626 0006418 280.1988  79.8535 15.42542128653177
SEASAT 1                
1 10967U 78064A   25335.47554782  .00000536  00000+0  18869-3 0  9996
2 10967 108.0097 279.4034 0001917 250.5474 109.5464 14.46040366492316
SL-14 R/B               
1 11267U 79011B   25335.31794963  .00000734  00000+0  70184-4 0  9992
2 11267  82.5242 189.8761 0016900  30.8258 329.3950 14.91748194514115
SL-8 R/B                
1 11574U 79089B   25335.25267853  .00000360  00000+0  11694-3 0  9999
2 11574  74.0689 273.2387 0014506 112.5311 247.7382 14.42270453421918
SL-14 R/B               
1 11672U 80005B   25335.46777955  .00000782  00000+0  76812-4 0  9992
2 11672  82.5159  40.3888 0016994 127.9377 232.3381 14.90769996461851
SL-8 R/B                
1 12139U 81003B   25335.18216866  .00025338  00000+0  67838-3 0  9999
2 12139  82.9303  20.8387 0281203 160.1434 201.1013 15.06495296299821
SL-3 R/B                
1 12465U 81046B   25335.44945439  .00012491  00000+0  31786-3 0  9991
2 12465  81.2343  47.4395 0019692   3.9620 356.1773 15.39252783423309
SL-3 R/B                
1 12904U 81103B   25335.46986639  .00008613  00000+0  39791-3 0  9997
2 12904  81.1584 328.5521 0011151 256.9049 103.0938 15.20018249958306
SL-3 R/B                
1 13068U 82013B   25335.45968502  .00006045  00000+0  27011-3 0  9997
2 13068  81.1741 275.8107 0023541 146.9015 213.3695 15.20921322389414
SL-3 R/B                
1 13154U 82039B   25335.43650189  .00003707  00000+0  22806-3 0  9997
2 13154  81.1736 329.0993 0030513 290.4740  69.3210 15.09417077366811
